{
"type": "FeatureCollection",
"crs": { "type": "name", "properties": { "name": "urn:ogc:def:crs:OGC:1.3:CRS84" } },
                                                                                
"features": [
{ "type": "Feature", "properties": { "Legend": "220 kV" }, "geometry": { "type": "Point", "coordinates": [ 64.168653636430648, 43.314805257884544 ] } },
{ "type": "Feature", "properties": { "Legend": "220 kV" }, "geometry": { "type": "Point", "coordinates": [ 64.397056439953957, 43.17564834177621 ] } },
{ "type": "Feature", "properties": { "Legend": "220 kV" }, "geometry": { "type": "Point", "coordinates": [ 64.614917575622314, 42.841480176762673 ] } },
{ "type": "Feature", "properties": { "Legend": "220 kV" }, "geometry": { "type": "Point", "coordinates": [ 65.475820450440878, 42.829837379922552 ] } },
{ "type": "Feature", "properties": { "Legend": "220 kV" }, "geometry": { "type": "Point", "coordinates": [ 65.373917661176648, 42.585035559118289 ] } },
{ "type": "Feature", "properties": { "Legend": "220 kV" }, "geometry": { "type": "Point", "coordinates": [ 65.264987093342455, 42.380592745268324 ] } },
{ "type": "Feature", "properties": { "Legend": "220 kV" }, "geometry": { "type": "Point", "coordinates": [ 65.212278754067853, 42.202109033298363 ] } },
{ "type": "Feature", "properties": { "Legend": "220 kV" }, "geometry": { "type": "Point", "coordinates": [ 64.881973161280328, 42.360126435381993 ] } },
{ "type": "Feature", "properties": { "Legend": "220 kV" }, "geometry": { "type": "Point", "coordinates": [ 69.365990616370553, 41.569141079232878 ] } },
{ "type": "Feature", "properties": { "Legend": "220 kV" }, "geometry": { "type": "Point", "coordinates": [ 69.67016455655974, 41.685777941562272 ] } },
{ "type": "Feature", "properties": { "Legend": "220 kV" }, "geometry": { "type": "Point", "coordinates": [ 71.000281108573532, 42.887815310495021 ] } },
{ "type": "Feature", "properties": { "Legend": "220 kV" }, "geometry": { "type": "Point", "coordinates": [ 70.65486324429088, 43.13082365007552 ] } },
{ "type": "Feature", "properties": { "Legend": "220 kV" }, "geometry": { "type": "Point", "coordinates": [ 70.340378323078326, 43.045623058905065 ] } },
{ "type": "Feature", "properties": { "Legend": "220 kV" }, "geometry": { "type": "Point", "coordinates": [ 70.598152848662394, 42.657067088015395 ] } },
{ "type": "Feature", "properties": { "Legend": "220 kV" }, "geometry": { "type": "Point", "coordinates": [ 70.031048892377441, 42.913422205858637 ] } },
{ "type": "Feature", "properties": { "Legend": "220 kV" }, "geometry": { "type": "Point", "coordinates": [ 70.139314193122758, 42.528651353411249 ] } },
{ "type": "Feature", "properties": { "Legend": "220 kV" }, "geometry": { "type": "Point", "coordinates": [ 69.066972166693034, 42.59287904663455 ] } },
{ "type": "Feature", "properties": { "Legend": "220 kV" }, "geometry": { "type": "Point", "coordinates": [ 68.314270551987576, 43.096751915934576 ] } },
{ "type": "Feature", "properties": { "Legend": "220 kV" }, "geometry": { "type": "Point", "coordinates": [ 72.068365531051086, 41.340142989945988 ] } },
{ "type": "Feature", "properties": { "Legend": "220 kV" }, "geometry": { "type": "Point", "coordinates": [ 71.864411390157883, 41.356418141383905 ] } },
{ "type": "Feature", "properties": { "Legend": "220 kV" }, "geometry": { "type": "Point", "coordinates": [ 71.764191590861898, 41.140712610971356 ] } },
{ "type": "Feature", "properties": { "Legend": "220 kV" }, "geometry": { "type": "Point", "coordinates": [ 72.001344154399234, 40.697189837445109 ] } },
{ "type": "Feature", "properties": { "Legend": "220 kV" }, "geometry": { "type": "Point", "coordinates": [ 71.748725119326835, 40.614374292578546 ] } },
{ "type": "Feature", "properties": { "Legend": "220 kV" }, "geometry": { "type": "Point", "coordinates": [ 71.418773726579232, 40.714616756950598 ] } },
{ "type": "Feature", "properties": { "Legend": "220 kV" }, "geometry": { "type": "Point", "coordinates": [ 71.124910767413411, 40.86263406662701 ] } },
{ "type": "Feature", "properties": { "Legend": "220 kV" }, "geometry": { "type": "Point", "coordinates": [ 73.310052661391268, 41.126373943523902 ] } },
{ "type": "Feature", "properties": { "Legend": "220 kV" }, "geometry": { "type": "Point", "coordinates": [ 73.07885178637892, 41.024145122955908 ] } },
{ "type": "Feature", "properties": { "Legend": "220 kV" }, "geometry": { "type": "Point", "coordinates": [ 73.07018175356599, 40.597159844359076 ] } },
{ "type": "Feature", "properties": { "Legend": "220 kV" }, "geometry": { "type": "Point", "coordinates": [ 72.549979784788206, 40.39161751059693 ] } },
{ "type": "Feature", "properties": { "Legend": "220 kV" }, "geometry": { "type": "Point", "coordinates": [ 72.258088680085109, 40.916945312596091 ] } },
{ "type": "Feature", "properties": { "Legend": "220 kV" }, "geometry": { "type": "Point", "coordinates": [ 72.258088680085109, 41.050928620337778 ] } },
{ "type": "Feature", "properties": { "Legend": "220 kV" }, "geometry": { "type": "Point", "coordinates": [ 72.081798012888228, 41.058232067545894 ] } },
{ "type": "Feature", "properties": { "Legend": "220 kV" }, "geometry": { "type": "Point", "coordinates": [ 70.836203298759258, 41.058232067545894 ] } },
{ "type": "Feature", "properties": { "Legend": "220 kV" }, "geometry": { "type": "Point", "coordinates": [ 70.501096415499973, 40.880034739684767 ] } },
{ "type": "Feature", "properties": { "Legend": "220 kV" }, "geometry": { "type": "Point", "coordinates": [ 69.753550291306169, 40.718973055553569 ] } },
{ "type": "Feature", "properties": { "Legend": "220 kV" }, "geometry": { "type": "Point", "coordinates": [ 69.609196556979086, 40.810415458201689 ] } },
{ "type": "Feature", "properties": { "Legend": "220 kV" }, "geometry": { "type": "Point", "coordinates": [ 69.475153803675383, 41.08862691527316 ] } },
{ "type": "Feature", "properties": { "Legend": "220 kV" }, "geometry": { "type": "Point", "coordinates": [ 69.583419104420685, 41.236138188999405 ] } },
{ "type": "Feature", "properties": { "Legend": "220 kV" }, "geometry": { "type": "Point", "coordinates": [ 69.51124223725715, 41.353136553264569 ] } },
{ "type": "Feature", "properties": { "Legend": "220 kV" }, "geometry": { "type": "Point", "coordinates": [ 69.243156730649716, 41.387778406033469 ] } },
{ "type": "Feature", "properties": { "Legend": "220 kV" }, "geometry": { "type": "Point", "coordinates": [ 69.10395848683433, 41.370458870614598 ] } },
{ "type": "Feature", "properties": { "Legend": "220 kV" }, "geometry": { "type": "Point", "coordinates": [ 69.392665955488482, 40.975688986516516 ] } },
{ "type": "Feature", "properties": { "Legend": "220 kV" }, "geometry": { "type": "Point", "coordinates": [ 68.774007094086727, 42.091176330479797 ] } },
{ "type": "Feature", "properties": { "Legend": "220 kV" }, "geometry": { "type": "Point", "coordinates": [ 68.480144134920891, 42.185757563411883 ] } },
{ "type": "Feature", "properties": { "Legend": "220 kV" }, "geometry": { "type": "Point", "coordinates": [ 68.788575679062248, 42.43866601870694 ] } },
{ "type": "Feature", "properties": { "Legend": "220 kV" }, "geometry": { "type": "Point", "coordinates": [ 68.427691343244547, 42.404365477644369 ] } },
{ "type": "Feature", "properties": { "Legend": "220 kV" }, "geometry": { "type": "Point", "coordinates": [ 69.03603922362295, 41.07527575537415 ] } },
{ "type": "Feature", "properties": { "Legend": "220 kV" }, "geometry": { "type": "Point", "coordinates": [ 68.850441565202416, 41.218468923954212 ] } },
{ "type": "Feature", "properties": { "Legend": "220 kV" }, "geometry": { "type": "Point", "coordinates": [ 69.268036296648603, 40.840552799376702 ] } },
{ "type": "Feature", "properties": { "Legend": "220 kV" }, "geometry": { "type": "Point", "coordinates": [ 69.350524144835518, 40.413288221700782 ] } },
{ "type": "Feature", "properties": { "Legend": "220 kV" }, "geometry": { "type": "Point", "coordinates": [ 69.195859429485068, 40.330259897642854 ] } },
{ "type": "Feature", "properties": { "Legend": "220 kV" }, "geometry": { "type": "Point", "coordinates": [ 68.515334681943131, 40.70993335981143 ] } },
{ "type": "Feature", "properties": { "Legend": "220 kV" }, "geometry": { "type": "Point", "coordinates": [ 68.079612410606373, 40.341117573773836 ] } },
{ "type": "Feature", "properties": { "Legend": "220 kV" }, "geometry": { "type": "Point", "coordinates": [ 67.766876264243692, 40.608928828289166 ] } },
{ "type": "Feature", "properties": { "Legend": "220 kV" }, "geometry": { "type": "Point", "coordinates": [ 67.594695689280002, 40.245739963340192 ] } },
{ "type": "Feature", "properties": { "Legend": "220 kV" }, "geometry": { "type": "Point", "coordinates": [ 67.4752234535909, 39.956128486089561 ] } },
{ "type": "Feature", "properties": { "Legend": "220 kV" }, "geometry": { "type": "Point", "coordinates": [ 67.208167867932914, 40.358991784446317 ] } },
{ "type": "Feature", "properties": { "Legend": "220 kV" }, "geometry": { "type": "Point", "coordinates": [ 66.835695603725682, 40.141327282962472 ] } },
{ "type": "Feature", "properties": { "Legend": "220 kV" }, "geometry": { "type": "Point", "coordinates": [ 66.28401498598484, 40.212935060913154 ] } },
{ "type": "Feature", "properties": { "Legend": "220 kV" }, "geometry": { "type": "Point", "coordinates": [ 65.922084389632516, 40.114462547484671 ] } },
{ "type": "Feature", "properties": { "Legend": "220 kV" }, "geometry": { "type": "Point", "coordinates": [ 65.690167696824261, 40.39175370966592 ] } },
{ "type": "Feature", "properties": { "Legend": "220 kV" }, "geometry": { "type": "Point", "coordinates": [ 65.879917718212852, 39.200252083361562 ] } },
{ "type": "Feature", "properties": { "Legend": "220 kV" }, "geometry": { "type": "Point", "coordinates": [ 65.525014900430506, 39.335597509986435 ] } },
{ "type": "Feature", "properties": { "Legend": "220 kV" }, "geometry": { "type": "Point", "coordinates": [ 65.229848200492725, 39.371662709100598 ] } },
{ "type": "Feature", "properties": { "Legend": "220 kV" }, "geometry": { "type": "Point", "coordinates": [ 65.212278754067853, 39.497801542762524 ] } },
{ "type": "Feature", "properties": { "Legend": "220 kV" }, "geometry": { "type": "Point", "coordinates": [ 65.03658428981916, 39.686748740564035 ] } },
{ "type": "Feature", "properties": { "Legend": "220 kV" }, "geometry": { "type": "Point", "coordinates": [ 65.144541773863097, 38.292777706393714 ] } },
{ "type": "Feature", "properties": { "Legend": "220 kV" }, "geometry": { "type": "Point", "coordinates": [ 65.257962565120081, 38.381740246186865 ] } },
{ "type": "Feature", "properties": { "Legend": "220 kV" }, "geometry": { "type": "Point", "coordinates": [ 65.382951694833835, 38.439797050570242 ] } },
{ "type": "Feature", "properties": { "Legend": "220 kV" }, "geometry": { "type": "Point", "coordinates": [ 65.527305429160918, 38.48867389786691 ] } },
{ "type": "Feature", "properties": { "Legend": "220 kV" }, "geometry": { "type": "Point", "coordinates": [ 65.779924464233304, 38.701717338301798 ] } },
{ "type": "Feature", "properties": { "Legend": "220 kV" }, "geometry": { "type": "Point", "coordinates": [ 65.001445396969416, 38.998443008489161 ] } },
{ "type": "Feature", "properties": { "Legend": "220 kV" }, "geometry": { "type": "Point", "coordinates": [ 68.629653359759644, 38.568343746255259 ] } },
{ "type": "Feature", "properties": { "Legend": "220 kV" }, "geometry": { "type": "Point", "coordinates": [ 68.743074151016629, 38.12356490607803 ] } },
{ "type": "Feature", "properties": { "Legend": "220 kV" }, "geometry": { "type": "Point", "coordinates": [ 69.4699983131637, 38.078995214014178 ] } },
{ "type": "Feature", "properties": { "Legend": "220 kV" }, "geometry": { "type": "Point", "coordinates": [ 69.634974009537501, 38.239368110750256 ] } },
{ "type": "Feature", "properties": { "Legend": "220 kV" }, "geometry": { "type": "Point", "coordinates": [ 69.088509672592991, 38.829579920936212 ] } },
{ "type": "Feature", "properties": { "Legend": "220 kV" }, "geometry": { "type": "Point", "coordinates": [ 68.614204545518305, 38.90928411375608 ] } },
{ "type": "Feature", "properties": { "Legend": "220 kV" }, "geometry": { "type": "Point", "coordinates": [ 68.258475700212301, 38.758685969695783 ] } },
{ "type": "Feature", "properties": { "Legend": "220 kV" }, "geometry": { "type": "Point", "coordinates": [ 67.933679797976367, 38.661136515887783 ] } },
{ "type": "Feature", "properties": { "Legend": "220 kV" }, "geometry": { "type": "Point", "coordinates": [ 68.22238726663052, 38.363553968675191 ] } },
{ "type": "Feature", "properties": { "Legend": "220 kV" }, "geometry": { "type": "Point", "coordinates": [ 67.67074978188063, 38.047386342002149 ] } },
{ "type": "Feature", "properties": { "Legend": "220 kV" }, "geometry": { "type": "Point", "coordinates": [ 67.608883895740448, 37.694608403356099 ] } },
{ "type": "Feature", "properties": { "Legend": "220 kV" }, "geometry": { "type": "Point", "coordinates": [ 67.139734259177445, 37.779548290259442 ] } },
{ "type": "Feature", "properties": { "Legend": "220 kV" }, "geometry": { "type": "Point", "coordinates": [ 61.556338035026556, 37.327341265516246 ] } },
{ "type": "Feature", "properties": { "Legend": "220 kV" }, "geometry": { "type": "Point", "coordinates": [ 61.875978446750793, 37.399090249409795 ] } },
{ "type": "Feature", "properties": { "Legend": "220 kV" }, "geometry": { "type": "Point", "coordinates": [ 62.489481817640879, 38.065220938211944 ] } },
{ "type": "Feature", "properties": { "Legend": "220 kV" }, "geometry": { "type": "Point", "coordinates": [ 63.845375822213057, 39.170153699781203 ] } },
{ "type": "Feature", "properties": { "Legend": "220 kV" }, "geometry": { "type": "Point", "coordinates": [ 63.581834125840032, 39.191223393315823 ] } },
{ "type": "Feature", "properties": { "Legend": "220 kV" }, "geometry": { "type": "Point", "coordinates": [ 64.723848143456479, 39.65078297992055 ] } },
{ "type": "Feature", "properties": { "Legend": "220 kV" }, "geometry": { "type": "Point", "coordinates": [ 65.602320464699915, 40.19503741562221 ] } },
{ "type": "Feature", "properties": { "Legend": "220 kV" }, "geometry": { "type": "Point", "coordinates": [ 65.387973218316546, 41.14851934901948 ] } },
{ "type": "Feature", "properties": { "Legend": "220 kV" }, "geometry": { "type": "Point", "coordinates": [ 64.555181457777763, 40.361970540303986 ] } },
{ "type": "Feature", "properties": { "Legend": "220 kV" }, "geometry": { "type": "Point", "coordinates": [ 64.881973161280328, 40.04279175905323 ] } },
{ "type": "Feature", "properties": { "Legend": "220 kV" }, "geometry": { "type": "Point", "coordinates": [ 64.674653693466865, 40.057726949628915 ] } },
{ "type": "Feature", "properties": { "Legend": "220 kV" }, "geometry": { "type": "Point", "coordinates": [ 64.295153650689727, 40.236794127737724 ] } },
{ "type": "Feature", "properties": { "Legend": "220 kV" }, "geometry": { "type": "Point", "coordinates": [ 64.200278639995432, 39.968086011826209 ] } },
{ "type": "Feature", "properties": { "Legend": "220 kV" }, "geometry": { "type": "Point", "coordinates": [ 63.546695232990324, 39.395699873787578 ] } },
{ "type": "Feature", "properties": { "Legend": "220 kV" }, "geometry": { "type": "Point", "coordinates": [ 64.664112025611956, 41.390760578316808 ] } },
{ "type": "Feature", "properties": { "Legend": "220 kV" }, "geometry": { "type": "Point", "coordinates": [ 64.291639761404738, 42.219678269973059 ] } },
{ "type": "Feature", "properties": { "Legend": "220 kV" }, "geometry": { "type": "Point", "coordinates": [ 62.805264593860855, 42.117149690281309 ] } },
{ "type": "Feature", "properties": { "Legend": "220 kV" }, "geometry": { "type": "Point", "coordinates": [ 62.243042308265046, 41.861860902214339 ] } },
{ "type": "Feature", "properties": { "Legend": "220 kV" }, "geometry": { "type": "Point", "coordinates": [ 61.831917261923124, 41.423215061786777 ] } },
{ "type": "Feature", "properties": { "Legend": "220 kV" }, "geometry": { "type": "Point", "coordinates": [ 60.805861590710784, 41.926474832032753 ] } },
{ "type": "Feature", "properties": { "Legend": "220 kV" }, "geometry": { "type": "Point", "coordinates": [ 60.749639362151235, 41.717806809923431 ] } },
{ "type": "Feature", "properties": { "Legend": "220 kV" }, "geometry": { "type": "Point", "coordinates": [ 59.839542037343008, 42.043853893892447 ] } },
{ "type": "Feature", "properties": { "Legend": "220 kV" }, "geometry": { "type": "Point", "coordinates": [ 74.522379014611445, 47.079184087237941 ] } },
{ "type": "Feature", "properties": { "Legend": "220 kV" }, "geometry": { "type": "Point", "coordinates": [ 74.053229378048442, 46.743382568799426 ] } },
{ "type": "Feature", "properties": { "Legend": "220 kV" }, "geometry": { "type": "Point", "coordinates": [ 73.589235231997122, 47.115965433486835 ] } },
{ "type": "Feature", "properties": { "Legend": "220 kV" }, "geometry": { "type": "Point", "coordinates": [ 73.470658950228454, 46.813100968360949 ] } },
{ "type": "Feature", "properties": { "Legend": "220 kV" }, "geometry": { "type": "Point", "coordinates": [ 73.434570516646673, 45.985411101018606 ] } },
{ "type": "Feature", "properties": { "Legend": "220 kV" }, "geometry": { "type": "Point", "coordinates": [ 73.135552066969154, 45.512710376022213 ] } },
{ "type": "Feature", "properties": { "Legend": "220 kV" }, "geometry": { "type": "Point", "coordinates": [ 78.146688844323407, 45.935764165043601 ] } },
{ "type": "Feature", "properties": { "Legend": "220 kV" }, "geometry": { "type": "Point", "coordinates": [ 77.68785018878377, 45.703732853262835 ] } },
{ "type": "Feature", "properties": { "Legend": "220 kV" }, "geometry": { "type": "Point", "coordinates": [ 77.708472150830488, 44.954072748026249 ] } },
{ "type": "Feature", "properties": { "Legend": "220 kV" }, "geometry": { "type": "Point", "coordinates": [ 77.455853115758117, 44.118488618644143 ] } },
{ "type": "Feature", "properties": { "Legend": "220 kV" }, "geometry": { "type": "Point", "coordinates": [ 73.872787210139592, 45.379599239403575 ] } },
{ "type": "Feature", "properties": { "Legend": "220 kV" }, "geometry": { "type": "Point", "coordinates": [ 73.76452190939429, 44.862046518450484 ] } },
{ "type": "Feature", "properties": { "Legend": "220 kV" }, "geometry": { "type": "Point", "coordinates": [ 73.785143871440994, 44.312270127108619 ] } },
{ "type": "Feature", "properties": { "Legend": "220 kV" }, "geometry": { "type": "Point", "coordinates": [ 77.161990156592282, 43.966569465592642 ] } },
{ "type": "Feature", "properties": { "Legend": "220 kV" }, "geometry": { "type": "Point", "coordinates": [ 76.290712260118113, 43.280073174105198 ] } },
{ "type": "Feature", "properties": { "Legend": "220 kV" }, "geometry": { "type": "Point", "coordinates": [ 75.470989268760789, 42.935076582529824 ] } },
{ "type": "Feature", "properties": { "Legend": "220 kV" }, "geometry": { "type": "Point", "coordinates": [ 76.197913430907874, 42.695881770719737 ] } },
{ "type": "Feature", "properties": { "Legend": "220 kV" }, "geometry": { "type": "Point", "coordinates": [ 77.306343890919351, 42.318886952069413 ] } },
{ "type": "Feature", "properties": { "Legend": "220 kV" }, "geometry": { "type": "Point", "coordinates": [ 74.630644315356747, 43.143917135290039 ] } },
{ "type": "Feature", "properties": { "Legend": "220 kV" }, "geometry": { "type": "Point", "coordinates": [ 74.182116640840476, 43.61119171156232 ] } },
{ "type": "Feature", "properties": { "Legend": "220 kV" }, "geometry": { "type": "Point", "coordinates": [ 74.13056173572366, 43.271568743083662 ] } },
{ "type": "Feature", "properties": { "Legend": "220 kV" }, "geometry": { "type": "Point", "coordinates": [ 73.573768760462073, 43.717090392735095 ] } },
{ "type": "Feature", "properties": { "Legend": "220 kV" }, "geometry": { "type": "Point", "coordinates": [ 73.223195405667738, 42.94787495082651 ] } },
{ "type": "Feature", "properties": { "Legend": "220 kV" }, "geometry": { "type": "Point", "coordinates": [ 72.805600674221552, 42.494701903111 ] } },
{ "type": "Feature", "properties": { "Legend": "220 kV" }, "geometry": { "type": "Point", "coordinates": [ 72.429249866868815, 43.203507747152507 ] } },
{ "type": "Feature", "properties": { "Legend": "220 kV" }, "geometry": { "type": "Point", "coordinates": [ 71.521883536812908, 43.297079906513517 ] } },
{ "type": "Feature", "properties": { "Legend": "220 kV" }, "geometry": { "type": "Point", "coordinates": [ 70.568117792151853, 43.56880107661533 ] } },
{ "type": "Feature", "properties": { "Legend": "220 kV" }, "geometry": { "type": "Point", "coordinates": [ 70.243321889915933, 43.869388785487139 ] } },
{ "type": "Feature", "properties": { "Legend": "220 kV" }, "geometry": { "type": "Point", "coordinates": [ 69.469998313163728, 43.996127442015322 ] } },
{ "type": "Feature", "properties": { "Legend": "220 kV" }, "geometry": { "type": "Point", "coordinates": [ 69.63497400953753, 43.793268480600915 ] } },
{ "type": "Feature", "properties": { "Legend": "220 kV" }, "geometry": { "type": "Point", "coordinates": [ 69.109113977346041, 43.852478157882537 ] } },
{ "type": "Feature", "properties": { "Legend": "220 kV" }, "geometry": { "type": "Point", "coordinates": [ 68.407967267757385, 43.657800846642679 ] } },
{ "type": "Feature", "properties": { "Legend": "220 kV" }, "geometry": { "type": "Point", "coordinates": [ 68.026460969892966, 43.589998619080234 ] } },
{ "type": "Feature", "properties": { "Legend": "220 kV" }, "geometry": { "type": "Point", "coordinates": [ 66.943807962439891, 44.400609576250034 ] } },
{ "type": "Feature", "properties": { "Legend": "220 kV" }, "geometry": { "type": "Point", "coordinates": [ 66.448880873318473, 44.987515212241952 ] } },
{ "type": "Feature", "properties": { "Legend": "220 kV" }, "geometry": { "type": "Point", "coordinates": [ 65.758045144753169, 44.87041614135034 ] } },
{ "type": "Feature", "properties": { "Legend": "220 kV" }, "geometry": { "type": "Point", "coordinates": [ 64.747569004463642, 45.429537624475707 ] } },
{ "type": "Feature", "properties": { "Legend": "220 kV" }, "geometry": { "type": "Point", "coordinates": [ 63.231854794029331, 45.894371741794856 ] } },
{ "type": "Feature", "properties": { "Legend": "220 kV" }, "geometry": { "type": "Point", "coordinates": [ 62.736927704907927, 46.043299461808594 ] } },
{ "type": "Feature", "properties": { "Legend": "220 kV" }, "geometry": { "type": "Point", "coordinates": [ 62.293555520903325, 46.216750747630968 ] } },
{ "type": "Feature", "properties": { "Legend": "220 kV" }, "geometry": { "type": "Point", "coordinates": [ 62.530708084440661, 46.57091084996771 ] } },
{ "type": "Feature", "properties": { "Legend": "500 kV" }, "geometry": { "type": "Point", "coordinates": [ 72.492413841355912, 40.887843823413654 ] } },
{ "type": "Feature", "properties": { "Legend": "500 kV" }, "geometry": { "type": "Point", "coordinates": [ 70.908436989482666, 40.741073304211163 ] } },
{ "type": "Feature", "properties": { "Legend": "500 kV" }, "geometry": { "type": "Point", "coordinates": [ 68.358620593784238, 38.964624075611844 ] } },
{ "type": "Feature", "properties": { "Legend": "500 kV" }, "geometry": { "type": "Point", "coordinates": [ 68.822223574820356, 39.091648358472746 ] } },
{ "type": "Feature", "properties": { "Legend": "500 kV" }, "geometry": { "type": "Point", "coordinates": [ 71.178872061753694, 43.294202682948651 ] } },
{ "type": "Feature", "properties": { "Legend": "500 kV" }, "geometry": { "type": "Point", "coordinates": [ 69.504750185790087, 42.548119961038509 ] } },
{ "type": "Feature", "properties": { "Legend": "500 kV" }, "geometry": { "type": "Point", "coordinates": [ 67.431414631712116, 37.804014196331771 ] } },
{ "type": "Feature", "properties": { "Legend": "500 kV" }, "geometry": { "type": "Point", "coordinates": [ 66.356113272920126, 38.975675192467186 ] } },
{ "type": "Feature", "properties": { "Legend": "500 kV" }, "geometry": { "type": "Point", "coordinates": [ 59.844356318206941, 41.684561288766844 ] } },
{ "type": "Feature", "properties": { "Legend": "500 kV" }, "geometry": { "type": "Point", "coordinates": [ 63.23323208121883, 39.515887759428367 ] } },
{ "type": "Feature", "properties": { "Legend": "500 kV" }, "geometry": { "type": "Point", "coordinates": [ 63.580934316995879, 39.724674169878746 ] } },
{ "type": "Feature", "properties": { "Legend": "500 kV" }, "geometry": { "type": "Point", "coordinates": [ 67.038639883889886, 39.889234538432504 ] } },
{ "type": "Feature", "properties": { "Legend": "500 kV" }, "geometry": { "type": "Point", "coordinates": [ 69.749429536892492, 40.588659566320054 ] } },
{ "type": "Feature", "properties": { "Legend": "500 kV" }, "geometry": { "type": "Point", "coordinates": [ 69.678601303678619, 41.489164578060716 ] } },
{ "type": "Feature", "properties": { "Legend": "500 kV" }, "geometry": { "type": "Point", "coordinates": [ 73.168501522033509, 42.655033899553828 ] } },
{ "type": "Feature", "properties": { "Legend": "500 kV" }, "geometry": { "type": "Point", "coordinates": [ 73.644982363653895, 42.868531565731544 ] } },
{ "type": "Feature", "properties": { "Legend": "500 kV" }, "geometry": { "type": "Point", "coordinates": [ 76.793619276523913, 43.733963578656528 ] } }
]
}
