{
"type": "FeatureCollection",
"crs": { "type": "name", "properties": { "name": "urn:ogc:def:crs:OGC:1.3:CRS84" } },
                                                                                
"features": [
{ "type": "Feature", "properties": { "Legend": "220 kV" }, "geometry": { "type": "Point", "coordinates": [ 66.588078838995443, 40.422352251266254 ] } },
{ "type": "Feature", "properties": { "Legend": "220 kV" }, "geometry": { "type": "Point", "coordinates": [ 71.941196486957892, 41.011899822790923 ] } },
{ "type": "Feature", "properties": { "Legend": "220 kV" }, "geometry": { "type": "Point", "coordinates": [ 66.44372510466836, 38.670406124178747 ] } },
{ "type": "Feature", "properties": { "Legend": "220 kV" }, "geometry": { "type": "Point", "coordinates": [ 62.9843909713302, 40.387403368571938 ] } },
{ "type": "Feature", "properties": { "Legend": "220 kV" }, "geometry": { "type": "Point", "coordinates": [ 60.406645715489518, 41.604037681515486 ] } },
{ "type": "Feature", "properties": { "Legend": "220 kV" }, "geometry": { "type": "Point", "coordinates": [ 58.159624078447855, 43.77474787373076 ] } },
{ "type": "Feature", "properties": { "Legend": "220 kV" }, "geometry": { "type": "Point", "coordinates": [ 60.210737076045632, 42.481847457300255 ] } },
{ "type": "Feature", "properties": { "Legend": "500 kV" }, "geometry": { "type": "Point", "coordinates": [ 61.765902889887336, 42.126513849449609 ] } },
{ "type": "Feature", "properties": { "Legend": "500 kV" }, "geometry": { "type": "Point", "coordinates": [ 71.571645843105244, 41.289094978377051 ] } }
]
}
